LANDSAT 9               
1 49260U 21088A   23352.19719589  .00000590  00000+0  14107-3 0  9993
2 49260  98.2112  59.6976 0001193  90.0613 270.0722 14.57106680118188
